GLOBALSTAR M063         
1 26081U 00008A   24309.86446910 -.00000095  00000+0 -18693-3 0  9996
2 26081  51.9978 342.3549 0004643 241.8607 289.3648 11.86161440130953
GLOBALSTAR M060         
1 26083U 00008C   24310.12589525 -.00000092  00000+0 -14886-4 0  9997
2 26083  52.0033 322.9815 0003423  32.3771  11.1004 12.17645822125248
GLOBALSTAR M064         
1 26084U 00008D   24309.68117464 -.00000089  00000+0 -88417-4 0  9993
2 26084  52.0024  84.3076 0001219  21.5999 338.4885 11.88525840140401
GLOBALSTAR M065         
1 31571U 07020A   24310.10687874 -.00000159  00000+0 -30978-3 0  9993
2 31571  51.9881 188.2856 0009896 163.3025 349.4714 12.61978488805426
GLOBALSTAR M069         
1 31573U 07020C   24309.81251061 -.00000068  00000+0  20953-3 0  9996
2 31573  51.9922 146.5998 0001786  66.7086 306.2822 12.53304056806181
GLOBALSTAR M072         
1 31574U 07020D   24310.13236186 -.00000042  00000+0  35987-3 0  9990
2 31574  52.0079 240.0622 0000719  74.3284 299.1110 12.56727604804685
GLOBALSTAR M071         
1 31576U 07020F   24309.82704355 -.00000062  00000+0  23252-3 0  9998
2 31576  52.0040 150.0668 0001687  60.0056 313.3255 12.62262690467409
